{
  "links" : {
    "next" : "https://api.nasa.gov/neo/rest/v1/feed?start_date=2015-05-09&end_date=2015-05-09&detailed=true&api_key=t0TVs3DtDT2H8Oy2Zy8m2eVrNsAVKAexjcZXUckd",
    "prev" : "https://api.nasa.gov/neo/rest/v1/feed?start_date=2015-05-07&end_date=2015-05-07&detailed=true&api_key=t0TVs3DtDT2H8Oy2Zy8m2eVrNsAVKAexjcZXUckd",
    "self" : "https://api.nasa.gov/neo/rest/v1/feed?start_date=2015-05-08&end_date=2015-05-08&detailed=true&api_key=t0TVs3DtDT2H8Oy2Zy8m2eVrNsAVKAexjcZXUckd"
  },
  "element_count" : 5,
  "near_earth_objects" : {
    "2015-05-08" : [ {
      "links" : {
        "self" : "https://api.nasa.gov/neo/rest/v1/neo/3719182?api_key=t0TVs3DtDT2H8Oy2Zy8m2eVrNsAVKAexjcZXUckd"
      },
      "neo_reference_id" : "3719182",
      "name" : "(2015 JC1)",
      "nasa_jpl_url" : "http://ssd.jpl.nasa.gov/sbdb.cgi?sstr=3719182",
      "absolute_magnitude_h" : 27.1,
      "estimated_diameter" : {
        "kilometers" : {
          "estimated_diameter_min" : 0.0101054342,
          "estimated_diameter_max" : 0.0225964377
        },
        "meters" : {
          "estimated_diameter_min" : 10.1054341542,
          "estimated_diameter_max" : 22.5964377109
        },
        "miles" : {
          "estimated_diameter_min" : 0.0062792237,
          "estimated_diameter_max" : 0.0140407711
        },
        "feet" : {
          "estimated_diameter_min" : 33.1543125905,
          "estimated_diameter_max" : 74.1352966996
        }
      },
      "is_potentially_hazardous_asteroid" : false,
      "close_approach_data" : [ {
        "close_approach_date" : "2015-05-08",
        "epoch_date_close_approach" : 1431068400000,
        "relative_velocity" : {
          "kilometers_per_second" : "15.1470755493",
          "kilometers_per_hour" : "54529.4719774786",
          "miles_per_hour" : "33882.4932962283"
        },
        "miss_distance" : {
          "astronomical" : "0.0090910578",
          "lunar" : "3.5364215374",
          "kilometers" : "1360002.875",
          "miles" : "845066.625"
        },
        "orbiting_body" : "Earth"
      } ],
      "orbital_data" : {
        "orbit_id" : "6",
        "orbit_determination_date" : "2017-04-06 08:33:49",
        "orbit_uncertainty" : "7",
        "minimum_orbit_intersection" : ".000461924",
        "jupiter_tisserand_invariant" : "4.612",
        "epoch_osculation" : "2458000.5",
        "eccentricity" : ".5188275390654629",
        "semi_major_axis" : "1.393891633230458",
        "inclination" : "6.376841315958175",
        "ascending_node_longitude" : "231.7788636580143",
        "orbital_period" : "601.0933783026558",
        "perihelion_distance" : ".6707022674375609",
        "perihelion_argument" : "266.8867118117619",
        "aphelion_distance" : "2.117080999023356",
        "perihelion_time" : "2458298.658204171260",
        "mean_anomaly" : "181.4304842206923",
        "mean_motion" : ".598908610533282",
        "equinox" : "J2000"
      }
    }, {
      "links" : {
        "self" : "https://api.nasa.gov/neo/rest/v1/neo/3719730?api_key=t0TVs3DtDT2H8Oy2Zy8m2eVrNsAVKAexjcZXUckd"
      },
      "neo_reference_id" : "3719730",
      "name" : "(2015 KB57)",
      "nasa_jpl_url" : "http://ssd.jpl.nasa.gov/sbdb.cgi?sstr=3719730",
      "absolute_magnitude_h" : 22.3,
      "estimated_diameter" : {
        "kilometers" : {
          "estimated_diameter_min" : 0.0921626549,
          "estimated_diameter_max" : 0.2060819612
        },
        "meters" : {
          "estimated_diameter_min" : 92.1626548503,
          "estimated_diameter_max" : 206.0819612321
        },
        "miles" : {
          "estimated_diameter_min" : 0.057267201,
          "estimated_diameter_max" : 0.1280533543
        },
        "feet" : {
          "estimated_diameter_min" : 302.370924539,
          "estimated_diameter_max" : 676.1219416887
        }
      },
      "is_potentially_hazardous_asteroid" : false,
      "close_approach_data" : [ {
        "close_approach_date" : "2015-05-08",
        "epoch_date_close_approach" : 1431068400000,
        "relative_velocity" : {
          "kilometers_per_second" : "19.4325910533",
          "kilometers_per_hour" : "69957.3277918336",
          "miles_per_hour" : "43468.7629270979"
        },
        "miss_distance" : {
          "astronomical" : "0.1743396974",
          "lunar" : "67.818145752",
          "kilometers" : "26080848",
          "miles" : "16205887"
        },
        "orbiting_body" : "Earth"
      } ],
      "orbital_data" : {
        "orbit_id" : "9",
        "orbit_determination_date" : "2017-04-06 08:33:35",
        "orbit_uncertainty" : "6",
        "minimum_orbit_intersection" : ".141842",
        "jupiter_tisserand_invariant" : "6.096",
        "epoch_osculation" : "2458000.5",
        "eccentricity" : ".607394797669792",
        "semi_major_axis" : ".9446451986124497",
        "inclination" : "29.68886517977485",
        "ascending_node_longitude" : "239.6392815137085",
        "orbital_period" : "335.3524697637476",
        "perihelion_distance" : ".3708726193315003",
        "perihelion_argument" : "208.7944837721669",
        "aphelion_distance" : "1.518417777893399",
        "perihelion_time" : "2458085.186427416808",
        "mean_anomaly" : "269.0893414575752",
        "mean_motion" : "1.073497386954139",
        "equinox" : "J2000"
      }
    } ]
  }
}